IRIDIUM 159             
1 43578U 18061K   24338.82549056  .00000048  00000+0  10225-4 0  9997
2 43578  86.3945 290.8626 0002153  87.8337 272.3105 14.34216017333068
IRIDIUM 180             
1 43922U 19002A   24338.75521726  .00000759  00000+0  26406-3 0  9998
2 43922  86.3997 227.7585 0002153  83.1925 276.9516 14.34218643308664
IRIDIUM 176             
1 43923U 19002B   24338.76521295  .00002560  00000+0  40192-3 0  9991
2 43923  86.6117 227.7623 0003086  84.1363 276.0206 14.72266382316793
IRIDIUM 168             
1 43924U 19002C   24338.40003241  .00000137  00000+0  41810-4 0  9996
2 43924  86.3997 227.9683 0002027  83.8471 276.2956 14.34218730308590
IRIDIUM 173             
1 43925U 19002D   24338.73618858  .00000038  00000+0  65249-5 0  9992
2 43925  86.3999 227.7401 0002201  81.3040 278.8405 14.34211471308624
IRIDIUM 169             
1 43926U 19002E   24338.84142503  .00001087  00000+0  34891-3 0  9996
2 43926  86.4225 259.3126 0003410  56.1758 303.9764 14.38609330309664
IRIDIUM 172             
1 43927U 19002F   24338.79961886  .00001007  00000+0  35241-3 0  9996
2 43927  86.3998 227.7196 0002143  85.5057 274.6384 14.34215621308648
IRIDIUM 175             
1 43928U 19002G   24338.01219203  .00002456  00000+0  38531-3 0  9995
2 43928  86.1531 191.7371 0001701  47.4457 312.6903 14.72266053316674
